KUIPER-00044            
1 64505U 25134F   25211.58335648 -.00002240  00000+0 -10045-3 0  9990
2 64505  51.8722 153.4750 0011405 254.7233 247.1695 15.15456516  5029
KUIPER-00046            
1 64506U 25134G   25211.58335648 -.00953609  00000+0 -41344-1 0  9999
2 64506  51.8723 152.6400 0008329 261.9365 292.2492 15.24459541  3789
KUIPER-00047            
1 64507U 25134H   25211.12921026  .00039423  00000+0  11715-2 0  9998
2 64507  51.8620 154.4849 0009791 257.6460 102.3430 15.34336801  6875
KUIPER-00048            
1 64508U 25134J   25211.53751930  .00020916  00000+0  59030-3 0  9999
2 64508  51.8764 152.0218 0002895 228.5755 131.4983 15.36341010  6945
KUIPER-00049            
1 64509U 25134K   25211.55971371  .00024037  00000+0  69425-3 0  9992
2 64509  51.8711 152.1537 0006370 239.8583 120.1772 15.35516560  6943
KUIPER-00050            
1 64510U 25134L   25211.56416125  .00026642  00000+0  77909-3 0  9996
2 64510  51.8730 152.1837 0007024 233.2447 126.7894 15.35063445  6949
KUIPER-00051            
1 64511U 25134M   25211.22777933  .00035719  00000+0  10209-2 0  9991
2 64511  51.8737 153.6873 0005314 231.3661 128.6850 15.35640394  6891
KUIPER-00052            
1 64512U 25134N   25211.33334491  .01937417  00000+0  41355-1 0  9994
2 64512  51.8750 152.6798 0003909 259.7629 211.7469 15.40948349  4994
